[{"OBJECT_NAME":"STARLINK-11410 [DTC]","OBJECT_ID":"2024-209H","EPOCH":"2026-03-09T06:58:18.242688","MEAN_MOTION":15.69789342,"ECCENTRICITY":8.63e-5,"INCLINATION":53.1569,"RA_OF_ASC_NODE":13.3422,"ARG_OF_PERICENTER":94.9685,"MEAN_ANOMALY":265.1431,"EPHEMERIS_TYPE":0,"CLASSIFICATION_TYPE":"U","NORAD_CAT_ID":61946,"ELEMENT_SET_NO":999,"REV_AT_EPOCH":7665,"BSTAR":0.0019381445,"MEAN_MOTION_DOT":0.00241988,"MEAN_MOTION_DDOT":0},{"OBJECT_NAME":"COSMOS 921 DEB","OBJECT_ID":"1977-055C","EPOCH":"2026-03-09T22:42:10.805760","MEAN_MOTION":15.70063735,"ECCENTRICITY":0.00183564,"INCLINATION":75.8082,"RA_OF_ASC_NODE":161.9867,"ARG_OF_PERICENTER":333.9317,"MEAN_ANOMALY":26.0991,"EPHEMERIS_TYPE":0,"CLASSIFICATION_TYPE":"U","NORAD_CAT_ID":39690,"ELEMENT_SET_NO":999,"REV_AT_EPOCH":65481,"BSTAR":0.0010474937,"MEAN_MOTION_DOT":0.0012919,"MEAN_MOTION_DDOT":0}]
